OBJECT_NAME,OBJECT_ID,EPOCH,MEAN_MOTION,ECCENTRICITY,INCLINATION,RA_OF_ASC_NODE,ARG_OF_PERICENTER,MEAN_ANOMALY,EPHEMERIS_TYPE,CLASSIFICATION_TYPE,NORAD_CAT_ID,ELEMENT_SET_NO,REV_AT_EPOCH,BSTAR,MEAN_MOTION_DOT,MEAN_MOTION_DDOT
JUPITER 3 (ECHOSTAR 24),2023-108A,2026-07-14T10:51:29.480256,1.00272339,.00011081,0.0108,40.5711,70.6612,248.7625,0,U,57479,999,1091,0,-.157E-5,0
GALAXY 37 (G-37),2023-112A,2026-07-13T23:07:32.881728,1.00271325,.00017395,0.0218,73.5270,44.1230,34.0616,0,U,57493,999,1081,0,.42E-6,0
LUDI TANCE-4 01A,2023-120A,2026-07-14T23:24:51.721632,1.00275760,.0001489,15.0865,193.2798,16.8155,163.4500,0,U,57624,999,1082,0,-.185E-5,0
TJS-10,2023-169A,2026-07-13T17:52:09.208128,1.00274171,.0004074,2.6105,80.1722,115.9637,95.8858,0,U,58204,999,980,0,-.256E-5,0
ZHONGXING-6E,2023-172A,2026-07-14T16:55:11.377920,1.00272476,.0002698,0.0192,86.2131,23.7417,191.9164,0,U,58253,999,993,0,-.37E-5,0
YAOGAN-41,2023-197A,2026-07-15T05:23:58.068096,1.00265598,.0014263,3.0786,313.5852,198.5934,344.9916,0,U,58582,999,960,0,-.368E-5,0
OVZON-3,2024-003A,2026-07-14T20:54:52.408224,1.00270475,.00003681,0.0136,108.2863,217.1758,340.6622,0,U,58698,999,772,0,.43E-6,0
INSAT-3DS,2024-033A,2026-07-15T03:53:38.699808,1.00270883,.0001053,0.0913,264.7136,224.7540,304.0251,0,U,58990,999,4734,0,-.165E-5,0
MERAH PUTIH 2,2024-035A,2026-07-14T08:16:38.659296,1.00270544,.00010623,0.0215,82.0854,34.4456,52.7926,0,U,58995,999,886,0,-.365E-5,0
TJS-11,2024-037A,2026-07-14T22:10:11.059968,1.00273773,.0001807,4.1635,327.4277,149.6348,260.8199,0,U,59020,999,886,0,-.368E-5,0
HULIANWAN GAOGUI-01 (HG-01),2024-040A,2026-07-14T21:30:08.179200,1.00269960,.0001701,0.0733,334.0163,69.7147,245.1626,0,U,59069,999,760,0,.147E-5,0
EUTELSAT 36D,2024-059A,2026-07-15T03:16:30.830016,1.00270594,.0000199,0.0172,48.1469,206.7282,123.1086,0,U,59346,999,842,0,.146E-5,0
PAKSAT-MM1,2024-104A,2026-07-13T13:38:44.797056,1.00269751,.0001963,0.0311,143.3666,313.2921,77.6097,0,U,59915,999,779,0,.15E-5,0
ASTRA 1P (SES-24),2024-115A,2026-07-13T08:25:18.669792,1.00281209,.00014971,0.0666,329.5187,236.9138,230.3347,0,U,60086,999,746,0,.118E-5,0
GOES 19,2024-119A,2026-07-15T02:44:52.419840,1.00271519,.0000414,0.0104,115.3287,96.0012,47.6569,0,U,60133,999,724,0,-.258E-5,0
ZHONGXING-3A,2024-122A,2026-07-15T02:47:09.730176,1.00270487,.0001689,0.0274,119.3905,47.7596,269.1978,0,U,60179,999,758,0,-.323E-5,0
TURKSAT 6A,2024-127A,2026-07-15T03:18:15.661728,1.00269635,.0002922,0.0171,207.0436,322.2098,215.2786,0,U,60233,999,729,0,0,0
HULIANWAN GAOGUI-02 (HG-02),2024-135A,2026-07-15T03:49:38.819712,1.00271770,.0006692,0.0463,356.9634,13.2121,133.2639,0,U,60327,999,778,0,-.183E-5,0
ZHONGXING-4A,2024-151A,2026-07-15T01:57:18.835200,1.00267324,.0000402,1.2438,270.4948,300.0102,229.9330,0,U,60606,999,703,0,-.371E-5,0
HULIANWAN GAOGUI-03 (HG-03),2024-181A,2026-07-14T23:19:01.442208,1.00269056,.0001071,0.0510,1.0687,83.8040,120.5809,0,U,61503,999,710,0,-.25E-5,0
DSN-3 (KIRAMEKI-3),2024-198A,2026-07-15T03:47:12.885792,1.00269603,.0000844,0.0254,58.6259,81.2257,354.0417,0,U,61733,999,620,0,0,0
KOREASAT 6A,2024-206A,2026-07-15T00:14:00.684960,1.00270160,.0000707,0.0137,91.6588,0.8374,319.8768,0,U,61910,999,611,0,-.371E-5,0
OPTUS-X (ADS-01),2024-212A,2026-07-15T04:50:38.802336,1.00270006,.0002386,0.0135,63.8448,90.1044,8.1442,0,U,62006,999,604,0,-.153E-5,0
GSAT-N2 (GSAT-20),2024-214A,2026-07-15T03:42:21.652128,1.00271023,.000263,0.0745,262.3803,143.2687,10.8742,0,U,62028,999,617,0,-.28E-6,0
SXM-9,2024-234A,2026-07-15T02:42:00.196128,1.00269502,.0004948,0.0181,336.1436,341.9433,290.2069,0,U,62259,999,585,0,-.214E-5,0
TJS-12,2024-246A,2026-07-15T03:09:38.796192,1.00268948,.0001787,0.6118,302.0858,96.5607,88.2713,0,U,62374,999,584,0,-.24E-5,0
NUVIEW ALPHA,2024-252B,2026-07-15T02:42:30.149280,1.00270969,.0000971,0.0436,27.2523,54.6773,168.5525,0,U,62455,999,410,0,-.224E-5,0
AGILA,2024-252C,2026-07-14T19:16:18.988320,1.00270538,.00011473,0.0487,130.5994,347.7603,255.5372,0,U,62456,999,543,0,-.19E-5,0
NUVIEW BRAVO,2024-252D,2026-07-15T03:02:04.074720,1.00270629,.0001498,0.0699,162.9578,343.6297,108.7953,0,U,62457,999,407,0,-.224E-5,0
THURAYA-4,2025-001A,2026-07-15T03:18:53.103168,1.00272336,.0000208,0.0194,70.5016,221.1703,95.3412,0,U,62483,999,445,0,.13E-5,0
SHIJIAN-25 (SJ-25),2025-002A,2026-07-13T12:21:30.377088,1.00262897,.0052162,5.1734,60.9955,175.3750,7.5757,0,U,62485,999,562,0,-.359E-5,0
TJS-14,2025-017A,2026-07-14T20:05:04.814592,1.00275739,.00018105,0.7219,297.6879,293.7804,20.9528,0,U,62804,999,554,0,.108E-5,0
