JUPITER 3 (ECHOSTAR 24) 
1 57479U 23108A   26195.45242454 -.00000157  00000+0  00000+0 0  9991
2 57479   0.0108  40.5711 0001108  70.6612 248.7625  1.00272339 10915
GALAXY 37 (G-37)        
1 57493U 23112A   26194.96357502  .00000042  00000+0  00000+0 0  9990
2 57493   0.0218  73.5270 0001739  44.1230  34.0616  1.00271325 10810
LUDI TANCE-4 01A        
1 57624U 23120A   26195.97559863 -.00000185  00000+0  00000+0 0  9990
2 57624  15.0865 193.2798 0001489  16.8155 163.4500  1.00275760 10826
TJS-10                  
1 58204U 23169A   26194.74455102 -.00000256  00000+0  00000+0 0  9992
2 58204   2.6105  80.1722 0004074 115.9637  95.8858  1.00274171  9805
ZHONGXING-6E            
1 58253U 23172A   26195.70499280 -.00000370  00000+0  00000+0 0  9999
2 58253   0.0192  86.2131 0002698  23.7417 191.9164  1.00272476  9938
YAOGAN-41               
1 58582U 23197A   26196.22497764 -.00000368  00000+0  00000+0 0  9991
2 58582   3.0786 313.5852 0014263 198.5934 344.9916  1.00265598  9603
OVZON-3                 
1 58698U 24003A   26195.87143991  .00000043  00000+0  00000+0 0  9995
2 58698   0.0136 108.2863 0000368 217.1758 340.6622  1.00270475  7729
INSAT-3DS               
1 58990U 24033A   26196.16225347 -.00000165  00000+0  00000+0 0  9998
2 58990   0.0913 264.7136 0001053 224.7540 304.0251  1.00270883 47340
MERAH PUTIH 2           
1 58995U 24035A   26195.34489189 -.00000365  00000+0  00000+0 0  9992
2 58995   0.0215  82.0854 0001062  34.4456  52.7926  1.00270544  8864
TJS-11                  
1 59020U 24037A   26195.92373912 -.00000368  00000+0  00000+0 0  9997
2 59020   4.1635 327.4277 0001807 149.6348 260.8199  1.00273773  8867
HULIANWAN GAOGUI-01 (H*)
1 59069U 24040A   26195.89592800  .00000147  00000+0  00000+0 0  9993
2 59069   0.0733 334.0163 0001701  69.7147 245.1626  1.00269960  7609
EUTELSAT 36D            
1 59346U 24059A   26196.13646794  .00000146  00000+0  00000+0 0  9990
2 59346   0.0172  48.1469 0000199 206.7282 123.1086  1.00270594  8420
PAKSAT-MM1              
1 59915U 24104A   26194.56857404  .00000150  00000+0  00000+0 0  9995
2 59915   0.0311 143.3666 0001963 313.2921  77.6097  1.00269751  7795
ASTRA 1P (SES-24)       
1 60086U 24115A   26194.35091053  .00000118  00000+0  00000+0 0  9999
2 60086   0.0666 329.5187 0001497 236.9138 230.3347  1.00281209  7460
GOES 19                 
1 60133U 24119A   26196.11449560 -.00000258  00000+0  00000+0 0  9998
2 60133   0.0104 115.3287 0000414  96.0012  47.6569  1.00271519  7240
ZHONGXING-3A            
1 60179U 24122A   26196.11608484 -.00000323  00000+0  00000+0 0  9997
2 60179   0.0274 119.3905 0001689  47.7596 269.1978  1.00270487  7589
TURKSAT 6A              
1 60233U 24127A   26196.13768127  .00000000  00000+0  00000+0 0  9997
2 60233   0.0171 207.0436 0002922 322.2098 215.2786  1.00269635  7299
HULIANWAN GAOGUI-02 (H*)
1 60327U 24135A   26196.15947708 -.00000183  00000+0  00000+0 0  9999
2 60327   0.0463 356.9634 0006692  13.2121 133.2639  1.00271770  7786
ZHONGXING-4A            
1 60606U 24151A   26196.08146800 -.00000371  00000+0  00000+0 0  9992
2 60606   1.2438 270.4948 0000402 300.0102 229.9330  1.00267324  7037
HULIANWAN GAOGUI-03 (H*)
1 61503U 24181A   26195.97154447 -.00000250  00000+0  00000+0 0  9991
2 61503   0.0510   1.0687 0001071  83.8040 120.5809  1.00269056  7109
DSN-3 (KIRAMEKI-3)      
1 61733U 24198A   26196.15778803  .00000000  00000+0  00000+0 0  9995
2 61733   0.0254  58.6259 0000844  81.2257 354.0417  1.00269603  6208
KOREASAT 6A             
1 61910U 24206A   26196.00973015 -.00000371  00000+0  00000+0 0  9990
2 61910   0.0137  91.6588 0000707   0.8374 319.8768  1.00270160  6110
OPTUS-X (ADS-01)        
1 62006U 24212A   26196.20183799 -.00000153  00000+0  00000+0 0  9996
2 62006   0.0135  63.8448 0002386  90.1044   8.1442  1.00270006  6040
GSAT-N2 (GSAT-20)       
1 62028U 24214A   26196.15441727 -.00000028  00000+0  00000+0 0  9995
2 62028   0.0745 262.3803 0002630 143.2687  10.8742  1.00271023  6174
SXM-9                   
1 62259U 24234A   26196.11250227 -.00000214  00000+0  00000+0 0  9999
2 62259   0.0181 336.1436 0004948 341.9433 290.2069  1.00269502  5855
TJS-12                  
1 62374U 24246A   26196.13169903 -.00000240  00000+0  00000+0 0  9991
2 62374   0.6118 302.0858 0001787  96.5607  88.2713  1.00268948  5846
NUVIEW ALPHA            
1 62455U 24252B   26196.11284895 -.00000224  00000+0  00000+0 0  9996
2 62455   0.0436  27.2523 0000971  54.6773 168.5525  1.00270969  4108
AGILA                   
1 62456U 24252C   26195.80299755 -.00000190  00000+0  00000+0 0  9995
2 62456   0.0487 130.5994 0001147 347.7603 255.5372  1.00270538  5435
NUVIEW BRAVO            
1 62457U 24252D   26196.12643605 -.00000224  00000+0  00000+0 0  9997
2 62457   0.0699 162.9578 0001498 343.6297 108.7953  1.00270629  4075
THURAYA-4               
1 62483U 25001A   26196.13811462  .00000130  00000+0  00000+0 0  9993
2 62483   0.0194  70.5016 0000208 221.1703  95.3412  1.00272336  4455
SHIJIAN-25 (SJ-25)      
1 62485U 25002A   26194.51493492 -.00000359  00000+0  00000+0 0  9999
2 62485   5.1734  60.9955 0052162 175.3750   7.5757  1.00262897  5624
TJS-14                  
1 62804U 25017A   26195.83686128  .00000108  00000+0  00000+0 0  9997
2 62804   0.7219 297.6879 0001810 293.7804  20.9528  1.00275739  5546
